<?xml version="1.0" encoding="UTF-8"?>
<gpx creator="StravaGPX" version="1.1" xmlns="http://www.topografix.com/GPX/1/1" xmlns:xsi="http://www.w3.org/2001/XMLSchema-instance" xsi:schemaLocation="http://www.topografix.com/GPX/1/1 http://www.topografix.com/GPX/1/1/gpx.xsd">
 <metadata>
  <name>Birmingham 10K 2026</name>
  <author>
   <name>Team Runna</name>
   <link href="https://www.strava.com/athletes/98403821"/>
  </author>
  <copyright author="OpenStreetMap contributors">
   <year>2020</year>
   <license>https://www.openstreetmap.org/copyright</license>
  </copyright>
  <link href="https://www.strava.com/routes/3478762992837145994"/>
 </metadata>
 <trk>
  <name>Birmingham 10K 2026</name>
  <link href="https://www.strava.com/routes/3478762992837145994"/>
  <type>running</type>
  <trkseg>
   <trkpt lat="52.47881" lon="-1.9081200000000003">
    <ele>141.75</ele>
   </trkpt>
   <trkpt lat="52.47901000181251" lon="-1.907440003555905">
    <ele>141.48000000000002</ele>
   </trkpt>
   <trkpt lat="52.47921" lon="-1.9067600000000002">
    <ele>140.6</ele>
   </trkpt>
   <trkpt lat="52.47928" lon="-1.90667">
    <ele>140.23000000000002</ele>
   </trkpt>
   <trkpt lat="52.479380000000006" lon="-1.9066">
    <ele>139.73000000000002</ele>
   </trkpt>
   <trkpt lat="52.47948" lon="-1.90657">
    <ele>138.56</ele>
   </trkpt>
   <trkpt lat="52.47954000000001" lon="-1.90657">
    <ele>138.56</ele>
   </trkpt>
   <trkpt lat="52.48015" lon="-1.9069800000000001">
    <ele>139.89000000000001</ele>
   </trkpt>
   <trkpt lat="52.48078" lon="-1.90748">
    <ele>139.54000000000002</ele>
   </trkpt>
   <trkpt lat="52.48095000000001" lon="-1.90752">
    <ele>139.29000000000002</ele>
   </trkpt>
   <trkpt lat="52.48116" lon="-1.90755">
    <ele>138.26000000000002</ele>
   </trkpt>
   <trkpt lat="52.481210000000004" lon="-1.90755">
    <ele>138.26000000000002</ele>
   </trkpt>
   <trkpt lat="52.481260000000006" lon="-1.9074900000000001">
    <ele>138.03</ele>
   </trkpt>
   <trkpt lat="52.48147500253442" lon="-1.9082549965015563">
    <ele>136.12</ele>
   </trkpt>
   <trkpt lat="52.48169000000001" lon="-1.9090200000000002">
    <ele>134.57000000000002</ele>
   </trkpt>
   <trkpt lat="52.481910000000006" lon="-1.90985">
    <ele>131.42000000000002</ele>
   </trkpt>
   <trkpt lat="52.48201" lon="-1.91036">
    <ele>129.82000000000002</ele>
   </trkpt>
   <trkpt lat="52.482150000000004" lon="-1.9113200000000001">
    <ele>128.71</ele>
   </trkpt>
   <trkpt lat="52.482200000000006" lon="-1.91223">
    <ele>127.79</ele>
   </trkpt>
   <trkpt lat="52.482200000000006" lon="-1.9130300000000002">
    <ele>127.79</ele>
   </trkpt>
   <trkpt lat="52.48228500252237" lon="-1.9137999987213716">
    <ele>127.94</ele>
   </trkpt>
   <trkpt lat="52.48237" lon="-1.91457">
    <ele>129.07000000000002</ele>
   </trkpt>
   <trkpt lat="52.48246" lon="-1.91501">
    <ele>129.36</ele>
   </trkpt>
   <trkpt lat="52.48257" lon="-1.91538">
    <ele>129.88000000000002</ele>
   </trkpt>
   <trkpt lat="52.48265000000001" lon="-1.9155600000000002">
    <ele>130.24</ele>
   </trkpt>
   <trkpt lat="52.482710000000004" lon="-1.91548">
    <ele>130.48000000000002</ele>
   </trkpt>
   <trkpt lat="52.482670000000006" lon="-1.91541">
    <ele>130.53</ele>
   </trkpt>
   <trkpt lat="52.48274000000001" lon="-1.91535">
    <ele>130.48000000000002</ele>
   </trkpt>
   <trkpt lat="52.48252" lon="-1.9147">
    <ele>128.9</ele>
   </trkpt>
   <trkpt lat="52.48243" lon="-1.91426">
    <ele>128.32000000000002</ele>
   </trkpt>
   <trkpt lat="52.48225000000001" lon="-1.91297">
    <ele>127.44</ele>
   </trkpt>
   <trkpt lat="52.48227000000001" lon="-1.91209">
    <ele>127.42</ele>
   </trkpt>
   <trkpt lat="52.48232" lon="-1.9109200000000002">
    <ele>128.21</ele>
   </trkpt>
   <trkpt lat="52.482350000000004" lon="-1.91087">
    <ele>128.25</ele>
   </trkpt>
   <trkpt lat="52.48236000000001" lon="-1.91077">
    <ele>128.25</ele>
   </trkpt>
   <trkpt lat="52.48255" lon="-1.9107800000000001">
    <ele>128.35000000000002</ele>
   </trkpt>
   <trkpt lat="52.48327000023422" lon="-1.911009996239194">
    <ele>131.60000000000002</ele>
   </trkpt>
   <trkpt lat="52.483990000000006" lon="-1.91124">
    <ele>135.79000000000002</ele>
   </trkpt>
   <trkpt lat="52.484260000000006" lon="-1.91135">
    <ele>137.35</ele>
   </trkpt>
   <trkpt lat="52.48493250106091" lon="-1.9116399866981868">
    <ele>136.95000000000002</ele>
   </trkpt>
   <trkpt lat="52.48560500141288" lon="-1.911929982263193">
    <ele>136.95000000000002</ele>
   </trkpt>
   <trkpt lat="52.48627750105582" lon="-1.912219986695497">
    <ele>139.21</ele>
   </trkpt>
   <trkpt lat="52.48695000000001" lon="-1.9125100000000002">
    <ele>139.21</ele>
   </trkpt>
   <trkpt lat="52.48702" lon="-1.9122200000000003">
    <ele>140.68</ele>
   </trkpt>
   <trkpt lat="52.487230009111414" lon="-1.9111800099642726">
    <ele>139.37</ele>
   </trkpt>
   <trkpt lat="52.487440009104695" lon="-1.9101400099976942">
    <ele>137.73000000000002</ele>
   </trkpt>
   <trkpt lat="52.48765" lon="-1.9091000000000002">
    <ele>137.73000000000002</ele>
   </trkpt>
   <trkpt lat="52.48760000000001" lon="-1.9090700000000003">
    <ele>138.18000000000004</ele>
   </trkpt>
   <trkpt lat="52.48765" lon="-1.9089200000000002">
    <ele>138.04000000000002</ele>
   </trkpt>
   <trkpt lat="52.487660000000005" lon="-1.9089000000000003">
    <ele>138.04000000000002</ele>
   </trkpt>
   <trkpt lat="52.487660000000005" lon="-1.90887">
    <ele>138.04000000000002</ele>
   </trkpt>
   <trkpt lat="52.48763" lon="-1.90884">
    <ele>137.91</ele>
   </trkpt>
   <trkpt lat="52.487390000000005" lon="-1.90887">
    <ele>137.35</ele>
   </trkpt>
   <trkpt lat="52.486810000000006" lon="-1.9088">
    <ele>137.14000000000001</ele>
   </trkpt>
   <trkpt lat="52.48666000000001" lon="-1.9087">
    <ele>137.26000000000002</ele>
   </trkpt>
   <trkpt lat="52.48649" lon="-1.9084">
    <ele>137.34</ele>
   </trkpt>
   <trkpt lat="52.486160000000005" lon="-1.90891">
    <ele>138.43</ele>
   </trkpt>
   <trkpt lat="52.485975004324814" lon="-1.9099250043664238">
    <ele>139.82</ele>
   </trkpt>
   <trkpt lat="52.48579" lon="-1.91094">
    <ele>140.39000000000001</ele>
   </trkpt>
   <trkpt lat="52.48511500028589" lon="-1.9106349952717692">
    <ele>138.85</ele>
   </trkpt>
   <trkpt lat="52.484440000000006" lon="-1.91033">
    <ele>136.02</ele>
   </trkpt>
   <trkpt lat="52.484530002898374" lon="-1.9095000017490178">
    <ele>134.35</ele>
   </trkpt>
   <trkpt lat="52.48462000000001" lon="-1.90867">
    <ele>132.24</ele>
   </trkpt>
   <trkpt lat="52.484680000000004" lon="-1.90836">
    <ele>131.69</ele>
   </trkpt>
   <trkpt lat="52.48467" lon="-1.90826">
    <ele>131.69</ele>
   </trkpt>
   <trkpt lat="52.484500000000004" lon="-1.9079000000000002">
    <ele>130.28</ele>
   </trkpt>
   <trkpt lat="52.48507000000001" lon="-1.9070700000000003">
    <ele>130.86</ele>
   </trkpt>
   <trkpt lat="52.48553000154063" lon="-1.9064600064160007">
    <ele>131.26000000000002</ele>
   </trkpt>
   <trkpt lat="52.48599" lon="-1.9058500000000003">
    <ele>129.31</ele>
   </trkpt>
   <trkpt lat="52.48564500193718" lon="-1.905194995107172">
    <ele>126.42</ele>
   </trkpt>
   <trkpt lat="52.4853" lon="-1.9045400000000001">
    <ele>124.28000000000002</ele>
   </trkpt>
   <trkpt lat="52.484860000000005" lon="-1.9051300000000002">
    <ele>124.73</ele>
   </trkpt>
   <trkpt lat="52.48435000228851" lon="-1.9058750087118888">
    <ele>125.12</ele>
   </trkpt>
   <trkpt lat="52.48384000000001" lon="-1.9066200000000002">
    <ele>125.63000000000002</ele>
   </trkpt>
   <trkpt lat="52.48387" lon="-1.9067">
    <ele>125.74000000000001</ele>
   </trkpt>
   <trkpt lat="52.48384000000001" lon="-1.9067500000000002">
    <ele>125.68</ele>
   </trkpt>
   <trkpt lat="52.48434" lon="-1.90775">
    <ele>129.03</ele>
   </trkpt>
   <trkpt lat="52.48384000000001" lon="-1.9067500000000002">
    <ele>125.68</ele>
   </trkpt>
   <trkpt lat="52.483810000000005" lon="-1.9067600000000002">
    <ele>125.68</ele>
   </trkpt>
   <trkpt lat="52.48377000000001" lon="-1.9067">
    <ele>125.64</ele>
   </trkpt>
   <trkpt lat="52.48313334026517" lon="-1.9076066929080457">
    <ele>127.29</ele>
   </trkpt>
   <trkpt lat="52.482496673599805" lon="-1.908513359572342">
    <ele>127.81</ele>
   </trkpt>
   <trkpt lat="52.481860000000005" lon="-1.9094200000000001">
    <ele>131.12</ele>
   </trkpt>
   <trkpt lat="52.48162500360193" lon="-1.9084899948583187">
    <ele>134.82000000000002</ele>
   </trkpt>
   <trkpt lat="52.481390000000005" lon="-1.9075600000000001">
    <ele>137.05</ele>
   </trkpt>
   <trkpt lat="52.48124000000001" lon="-1.9073700000000002">
    <ele>137.92000000000002</ele>
   </trkpt>
   <trkpt lat="52.48102" lon="-1.9074200000000001">
    <ele>138.43</ele>
   </trkpt>
   <trkpt lat="52.48096" lon="-1.9074000000000002">
    <ele>138.43</ele>
   </trkpt>
   <trkpt lat="52.48084000000001" lon="-1.90738">
    <ele>138.78</ele>
   </trkpt>
   <trkpt lat="52.48030000000001" lon="-1.9069600000000002">
    <ele>140.72</ele>
   </trkpt>
   <trkpt lat="52.47957" lon="-1.9064200000000002">
    <ele>138.61</ele>
   </trkpt>
   <trkpt lat="52.479380000000006" lon="-1.9063">
    <ele>139.20000000000002</ele>
   </trkpt>
   <trkpt lat="52.47921" lon="-1.9063800000000002">
    <ele>139.98000000000002</ele>
   </trkpt>
   <trkpt lat="52.479150000000004" lon="-1.9063200000000002">
    <ele>139.98000000000002</ele>
   </trkpt>
   <trkpt lat="52.478970000000004" lon="-1.9060100000000002">
    <ele>139.84</ele>
   </trkpt>
   <trkpt lat="52.47899" lon="-1.9059700000000002">
    <ele>138.91</ele>
   </trkpt>
   <trkpt lat="52.478860000000005" lon="-1.9058100000000002">
    <ele>138.55</ele>
   </trkpt>
   <trkpt lat="52.478460000000005" lon="-1.9051600000000002">
    <ele>135.96</ele>
   </trkpt>
   <trkpt lat="52.47843" lon="-1.9052000000000002">
    <ele>136.29000000000002</ele>
   </trkpt>
   <trkpt lat="52.47814" lon="-1.9047200000000002">
    <ele>134.64000000000001</ele>
   </trkpt>
   <trkpt lat="52.47811" lon="-1.9047200000000002">
    <ele>134.51000000000002</ele>
   </trkpt>
   <trkpt lat="52.478100000000005" lon="-1.9047200000000002">
    <ele>134.51000000000002</ele>
   </trkpt>
   <trkpt lat="52.47805" lon="-1.9047300000000003">
    <ele>134.33</ele>
   </trkpt>
   <trkpt lat="52.478080000000006" lon="-1.9047900000000002">
    <ele>134.51000000000002</ele>
   </trkpt>
   <trkpt lat="52.47805" lon="-1.9047300000000003">
    <ele>134.33</ele>
   </trkpt>
   <trkpt lat="52.478" lon="-1.90477">
    <ele>134.33</ele>
   </trkpt>
   <trkpt lat="52.47791" lon="-1.9049800000000001">
    <ele>133.67000000000002</ele>
   </trkpt>
   <trkpt lat="52.47784000000001" lon="-1.9050600000000002">
    <ele>133.18</ele>
   </trkpt>
   <trkpt lat="52.47758000171779" lon="-1.905705003900617">
    <ele>131.88</ele>
   </trkpt>
   <trkpt lat="52.477320000000006" lon="-1.9063500000000002">
    <ele>132.18</ele>
   </trkpt>
   <trkpt lat="52.47702" lon="-1.90704">
    <ele>133.23000000000002</ele>
   </trkpt>
   <trkpt lat="52.47693" lon="-1.90718">
    <ele>133.75</ele>
   </trkpt>
   <trkpt lat="52.47643000000001" lon="-1.9076000000000002">
    <ele>133.68</ele>
   </trkpt>
   <trkpt lat="52.47608" lon="-1.9080500000000002">
    <ele>133.89000000000001</ele>
   </trkpt>
   <trkpt lat="52.47561" lon="-1.9087200000000002">
    <ele>137.23000000000002</ele>
   </trkpt>
   <trkpt lat="52.475410000000004" lon="-1.90918">
    <ele>138.67000000000002</ele>
   </trkpt>
   <trkpt lat="52.47533000000001" lon="-1.90931">
    <ele>139.47</ele>
   </trkpt>
   <trkpt lat="52.475030000000004" lon="-1.90969">
    <ele>141.16</ele>
   </trkpt>
   <trkpt lat="52.474790000000006" lon="-1.90904">
    <ele>141.70000000000002</ele>
   </trkpt>
   <trkpt lat="52.47458" lon="-1.90863">
    <ele>142.96</ele>
   </trkpt>
   <trkpt lat="52.47451" lon="-1.90843">
    <ele>143.29</ele>
   </trkpt>
   <trkpt lat="52.474410000000006" lon="-1.90765">
    <ele>143.49</ele>
   </trkpt>
   <trkpt lat="52.47437000000001" lon="-1.9074900000000001">
    <ele>143.49</ele>
   </trkpt>
   <trkpt lat="52.47451" lon="-1.90721">
    <ele>143.38</ele>
   </trkpt>
   <trkpt lat="52.47488334040831" lon="-1.9062933489108638">
    <ele>142.71</ele>
   </trkpt>
   <trkpt lat="52.475256673732154" lon="-1.9053766822677538">
    <ele>134.31</ele>
   </trkpt>
   <trkpt lat="52.47563" lon="-1.9044600000000003">
    <ele>134.31</ele>
   </trkpt>
   <trkpt lat="52.4757" lon="-1.9042800000000002">
    <ele>139.27</ele>
   </trkpt>
   <trkpt lat="52.47578000000001" lon="-1.9043700000000001">
    <ele>138.63</ele>
   </trkpt>
   <trkpt lat="52.47583" lon="-1.9044">
    <ele>138.63</ele>
   </trkpt>
   <trkpt lat="52.475910000000006" lon="-1.9043400000000001">
    <ele>137.24</ele>
   </trkpt>
   <trkpt lat="52.476205002213966" lon="-1.903610004974534">
    <ele>133.51000000000002</ele>
   </trkpt>
   <trkpt lat="52.4765" lon="-1.9028800000000001">
    <ele>130.83</ele>
   </trkpt>
   <trkpt lat="52.476560000000006" lon="-1.90291">
    <ele>130.83</ele>
   </trkpt>
   <trkpt lat="52.47664" lon="-1.90301">
    <ele>130.35000000000002</ele>
   </trkpt>
   <trkpt lat="52.47677" lon="-1.90308">
    <ele>130.02</ele>
   </trkpt>
   <trkpt lat="52.47697" lon="-1.9033400000000003">
    <ele>128.9</ele>
   </trkpt>
   <trkpt lat="52.47697" lon="-1.9033300000000002">
    <ele>128.9</ele>
   </trkpt>
   <trkpt lat="52.477250000000005" lon="-1.9036600000000001">
    <ele>127.64</ele>
   </trkpt>
   <trkpt lat="52.47729" lon="-1.9036600000000001">
    <ele>127.64</ele>
   </trkpt>
   <trkpt lat="52.47733" lon="-1.9036300000000002">
    <ele>127.64</ele>
   </trkpt>
   <trkpt lat="52.47755" lon="-1.9031300000000002">
    <ele>127.17</ele>
   </trkpt>
   <trkpt lat="52.477785002173974" lon="-1.9023950042488145">
    <ele>125.88000000000002</ele>
   </trkpt>
   <trkpt lat="52.47802" lon="-1.9016600000000001">
    <ele>126.23</ele>
   </trkpt>
   <trkpt lat="52.47787" lon="-1.9014600000000002">
    <ele>126.02000000000002</ele>
   </trkpt>
   <trkpt lat="52.47721500299258" lon="-1.9006249876381793">
    <ele>118.98000000000002</ele>
   </trkpt>
   <trkpt lat="52.476560000000006" lon="-1.89979">
    <ele>118.98000000000002</ele>
   </trkpt>
   <trkpt lat="52.476530000000004" lon="-1.8997300000000001">
    <ele>121.01</ele>
   </trkpt>
   <trkpt lat="52.476530000000004" lon="-1.8995600000000001">
    <ele>120.92000000000002</ele>
   </trkpt>
   <trkpt lat="52.476730002217515" lon="-1.8988250035607033">
    <ele>120.09000000000002</ele>
   </trkpt>
   <trkpt lat="52.47693" lon="-1.89809">
    <ele>119.11</ele>
   </trkpt>
   <trkpt lat="52.47692000000001" lon="-1.8980000000000001">
    <ele>119.11</ele>
   </trkpt>
   <trkpt lat="52.4767" lon="-1.8975400000000002">
    <ele>118.18</ele>
   </trkpt>
   <trkpt lat="52.47626" lon="-1.8964">
    <ele>116.21000000000001</ele>
   </trkpt>
   <trkpt lat="52.47572" lon="-1.8959000000000001">
    <ele>113.98</ele>
   </trkpt>
   <trkpt lat="52.47556" lon="-1.8959100000000002">
    <ele>113.62</ele>
   </trkpt>
   <trkpt lat="52.475440000000006" lon="-1.89596">
    <ele>113.4</ele>
   </trkpt>
   <trkpt lat="52.47540000000001" lon="-1.8957700000000002">
    <ele>113.13000000000001</ele>
   </trkpt>
   <trkpt lat="52.47533000000001" lon="-1.89565">
    <ele>112.86000000000001</ele>
   </trkpt>
   <trkpt lat="52.474880000000006" lon="-1.89528">
    <ele>112.25</ele>
   </trkpt>
   <trkpt lat="52.474810000000005" lon="-1.8951900000000002">
    <ele>112.25</ele>
   </trkpt>
   <trkpt lat="52.474090000000004" lon="-1.8946300000000003">
    <ele>110.68</ele>
   </trkpt>
   <trkpt lat="52.47381000000001" lon="-1.89437">
    <ele>110.11000000000001</ele>
   </trkpt>
   <trkpt lat="52.47318500145629" lon="-1.8938199923480887">
    <ele>108.21000000000001</ele>
   </trkpt>
   <trkpt lat="52.47256" lon="-1.8932700000000002">
    <ele>106.3</ele>
   </trkpt>
   <trkpt lat="52.47247" lon="-1.89328">
    <ele>106.23</ele>
   </trkpt>
   <trkpt lat="52.47193000000001" lon="-1.89365">
    <ele>105.58</ele>
   </trkpt>
   <trkpt lat="52.47157000000001" lon="-1.8939500000000002">
    <ele>105.87</ele>
   </trkpt>
   <trkpt lat="52.471230000000006" lon="-1.8942">
    <ele>105.87</ele>
   </trkpt>
   <trkpt lat="52.4707" lon="-1.89464">
    <ele>106.07000000000001</ele>
   </trkpt>
   <trkpt lat="52.47055" lon="-1.8947800000000001">
    <ele>106.07000000000001</ele>
   </trkpt>
   <trkpt lat="52.46981" lon="-1.8953400000000002">
    <ele>106.57000000000001</ele>
   </trkpt>
   <trkpt lat="52.46913500359331" lon="-1.895875024635618">
    <ele>105.99000000000001</ele>
   </trkpt>
   <trkpt lat="52.468460004773085" lon="-1.8964100328611095">
    <ele>109.32000000000001</ele>
   </trkpt>
   <trkpt lat="52.467785003539475" lon="-1.896945024677321">
    <ele>109.32000000000001</ele>
   </trkpt>
   <trkpt lat="52.467110000000005" lon="-1.89748">
    <ele>109.32000000000001</ele>
   </trkpt>
   <trkpt lat="52.46694" lon="-1.89779">
    <ele>110.25000000000001</ele>
   </trkpt>
   <trkpt lat="52.466820000000006" lon="-1.89813">
    <ele>110.55000000000001</ele>
   </trkpt>
   <trkpt lat="52.466680000000004" lon="-1.8983800000000002">
    <ele>110.79</ele>
   </trkpt>
   <trkpt lat="52.4665" lon="-1.8985200000000002">
    <ele>110.73</ele>
   </trkpt>
   <trkpt lat="52.46634" lon="-1.89857">
    <ele>110.57000000000001</ele>
   </trkpt>
   <!-- 10k seperation -->
   <trkpt lat="52.466260000000005" lon="-1.8985500000000002">
    <ele>110.57000000000001</ele>
   </trkpt>
   <trkpt lat="52.46613000000001" lon="-1.8983700000000001">
    <ele>110.32000000000001</ele>
   </trkpt>
   <trkpt lat="52.466100000000004" lon="-1.8982100000000002">
    <ele>110.14000000000001</ele>
   </trkpt>
   <trkpt lat="52.466100000000004" lon="-1.8980200000000003">
    <ele>109.94000000000001</ele>
   </trkpt>
   <!-- 10k seperation -->
   <trkpt lat="52.466150000000006" lon="-1.8978400000000002">
    <ele>109.77000000000001</ele>
   </trkpt>
   <trkpt lat="52.46627" lon="-1.8976600000000001">
    <ele>109.67</ele>
   </trkpt>
   <trkpt lat="52.46645" lon="-1.89752">
    <ele>109.58000000000001</ele>
   </trkpt>
   <trkpt lat="52.466550000000005" lon="-1.8974900000000001">
    <ele>109.56</ele>
   </trkpt>
   <trkpt lat="52.46699" lon="-1.89755">
    <ele>109.51</ele>
   </trkpt>
   <trkpt lat="52.467020000000005" lon="-1.8975300000000002">
    <ele>109.36000000000001</ele>
   </trkpt>
   <trkpt lat="52.46762500323983" lon="-1.897025020811755">
    <ele>109.63000000000001</ele>
   </trkpt>
   <trkpt lat="52.468230004329456" lon="-1.8965200277414074">
    <ele>109.63000000000001</ele>
   </trkpt>
   <trkpt lat="52.46883500326877" lon="-1.896015020788322">
    <ele>106.13</ele>
   </trkpt>
   <trkpt lat="52.469440000000006" lon="-1.8955100000000003">
    <ele>106.13</ele>
   </trkpt>
   <trkpt lat="52.469500000000004" lon="-1.8954000000000002">
    <ele>106.33000000000001</ele>
   </trkpt>
   <trkpt lat="52.469550000000005" lon="-1.89535">
    <ele>106.37</ele>
   </trkpt>
   <trkpt lat="52.469530000000006" lon="-1.89528">
    <ele>106.37</ele>
   </trkpt>
   <trkpt lat="52.46945" lon="-1.89514">
    <ele>106.37</ele>
   </trkpt>
   <trkpt lat="52.469100000000005" lon="-1.89487">
    <ele>106.43</ele>
   </trkpt>
   <trkpt lat="52.469120000000004" lon="-1.89481">
    <ele>106.43</ele>
   </trkpt>
   <trkpt lat="52.469815001612055" lon="-1.8941850099005992">
    <ele>105.76</ele>
   </trkpt>
   <trkpt lat="52.470510000000004" lon="-1.8935600000000001">
    <ele>105.19</ele>
   </trkpt>
   <trkpt lat="52.470910000311314" lon="-1.8932200032397748">
    <ele>105.07000000000001</ele>
   </trkpt>
   <trkpt lat="52.47131" lon="-1.8928800000000001">
    <ele>104.79</ele>
   </trkpt>
   <trkpt lat="52.471825001022665" lon="-1.8924000055691321">
    <ele>104.42000000000002</ele>
   </trkpt>
   <trkpt lat="52.47234" lon="-1.89192">
    <ele>104.19</ele>
   </trkpt>
   <trkpt lat="52.472550000000005" lon="-1.8925800000000002">
    <ele>105.64000000000001</ele>
   </trkpt>
   <trkpt lat="52.47260000000001" lon="-1.89291">
    <ele>106.09</ele>
   </trkpt>
   <trkpt lat="52.47256" lon="-1.8932700000000002">
    <ele>106.3</ele>
   </trkpt>
   <trkpt lat="52.473185001094215" lon="-1.893819992029473">
    <ele>108.21000000000001</ele>
   </trkpt>
   <trkpt lat="52.47381000000001" lon="-1.89437">
    <ele>110.11000000000001</ele>
   </trkpt>
   <trkpt lat="52.474090000000004" lon="-1.8946300000000003">
    <ele>111.06</ele>
   </trkpt>
   <trkpt lat="52.474810000000005" lon="-1.8951900000000002">
    <ele>112.25</ele>
   </trkpt>
   <trkpt lat="52.47496" lon="-1.89525">
    <ele>112.48</ele>
   </trkpt>
   <trkpt lat="52.475150000000006" lon="-1.8953700000000002">
    <ele>112.63000000000001</ele>
   </trkpt>
   <trkpt lat="52.475350000000006" lon="-1.8955300000000002">
    <ele>112.78</ele>
   </trkpt>
   <trkpt lat="52.47542000000001" lon="-1.8956100000000002">
    <ele>113.07000000000001</ele>
   </trkpt>
   <trkpt lat="52.47543" lon="-1.8956100000000002">
    <ele>112.37</ele>
   </trkpt>
   <trkpt lat="52.4758950005812" lon="-1.8959449965377722">
    <ele>112.37</ele>
   </trkpt>
   <trkpt lat="52.47636000000001" lon="-1.8962800000000002">
    <ele>114.74000000000001</ele>
   </trkpt>
   <trkpt lat="52.47639" lon="-1.89623">
    <ele>116.35000000000001</ele>
   </trkpt>
   <trkpt lat="52.47643000000001" lon="-1.89603">
    <ele>116.16000000000001</ele>
   </trkpt>
   <trkpt lat="52.47652000000001" lon="-1.8950900000000002">
    <ele>115.11</ele>
   </trkpt>
   <trkpt lat="52.476605004775195" lon="-1.8940250021350498">
    <ele>113.44000000000001</ele>
   </trkpt>
   <trkpt lat="52.476690000000005" lon="-1.8929600000000002">
    <ele>111.78</ele>
   </trkpt>
   <trkpt lat="52.47677" lon="-1.89298">
    <ele>111.78</ele>
   </trkpt>
   <trkpt lat="52.47708" lon="-1.8927600000000002">
    <ele>111.82000000000001</ele>
   </trkpt>
   <trkpt lat="52.477030000000006" lon="-1.8924900000000002">
    <ele>111.15</ele>
   </trkpt>
   <trkpt lat="52.47704" lon="-1.8924">
    <ele>111.05000000000001</ele>
   </trkpt>
   <trkpt lat="52.47710000000001" lon="-1.8924600000000003">
    <ele>111.43</ele>
   </trkpt>
   <trkpt lat="52.477140000000006" lon="-1.8924400000000001">
    <ele>111.81</ele>
   </trkpt>
   <trkpt lat="52.477610000000006" lon="-1.89189">
    <ele>112.46000000000001</ele>
   </trkpt>
   <trkpt lat="52.477920000000005" lon="-1.8915700000000002">
    <ele>113.02000000000001</ele>
   </trkpt>
   <trkpt lat="52.478120000000004" lon="-1.8914300000000002">
    <ele>113.27000000000001</ele>
   </trkpt>
   <trkpt lat="52.47822000000001" lon="-1.8916000000000002">
    <ele>113.57000000000001</ele>
   </trkpt>
   <trkpt lat="52.478500000000004" lon="-1.89291">
    <ele>120.02000000000001</ele>
   </trkpt>
   <trkpt lat="52.478550000000006" lon="-1.89301">
    <ele>120.69</ele>
   </trkpt>
   <trkpt lat="52.47862000000001" lon="-1.8930500000000001">
    <ele>120.69</ele>
   </trkpt>
   <trkpt lat="52.47869000000001" lon="-1.89304">
    <ele>121.78000000000002</ele>
   </trkpt>
   <trkpt lat="52.47918000000001" lon="-1.8926900000000002">
    <ele>123.67000000000002</ele>
   </trkpt>
   <trkpt lat="52.479965001840654" lon="-1.8920150121123904">
    <ele>118.32000000000001</ele>
   </trkpt>
   <trkpt lat="52.48075000000001" lon="-1.8913400000000002">
    <ele>118.32000000000001</ele>
   </trkpt>
   <trkpt lat="52.4812" lon="-1.8908800000000001">
    <ele>119.01</ele>
   </trkpt>
   <trkpt lat="52.481300000000005" lon="-1.8908200000000002">
    <ele>118.96000000000001</ele>
   </trkpt>
   <trkpt lat="52.481320000000004" lon="-1.8906300000000003">
    <ele>118.46000000000001</ele>
   </trkpt>
   <trkpt lat="52.481120000000004" lon="-1.88959">
    <ele>114.08000000000001</ele>
   </trkpt>
   <trkpt lat="52.48114" lon="-1.88935">
    <ele>113.73</ele>
   </trkpt>
   <trkpt lat="52.48125" lon="-1.8890700000000002">
    <ele>113.18</ele>
   </trkpt>
   <trkpt lat="52.48131000000001" lon="-1.88898">
    <ele>113.10000000000001</ele>
   </trkpt>
   <trkpt lat="52.48142000000001" lon="-1.8888800000000001">
    <ele>113.08000000000001</ele>
   </trkpt>
   <trkpt lat="52.481500000000004" lon="-1.88887">
    <ele>113.12</ele>
   </trkpt>
   <trkpt lat="52.481570000000005" lon="-1.88887">
    <ele>113.2</ele>
   </trkpt>
   <trkpt lat="52.481700000000004" lon="-1.88894">
    <ele>113.96000000000001</ele>
   </trkpt>
   <trkpt lat="52.481790000000004" lon="-1.88904">
    <ele>113.96000000000001</ele>
   </trkpt>
   <trkpt lat="52.4819" lon="-1.88925">
    <ele>115.89</ele>
   </trkpt>
   <trkpt lat="52.48223" lon="-1.8900100000000002">
    <ele>118.74000000000001</ele>
   </trkpt>
   <trkpt lat="52.48265000000001" lon="-1.8894300000000002">
    <ele>119.37</ele>
   </trkpt>
   <trkpt lat="52.483040001718294" lon="-1.888795005599249">
    <ele>122.18</ele>
   </trkpt>
   <trkpt lat="52.483430000000006" lon="-1.88816">
    <ele>122.66</ele>
   </trkpt>
   <trkpt lat="52.48385500178208" lon="-1.8875150061883776">
    <ele>122.68</ele>
   </trkpt>
   <trkpt lat="52.484280000000005" lon="-1.88687">
    <ele>122.86000000000001</ele>
   </trkpt>
  </trkseg>
 </trk>
</gpx>
